{
  "norad_id": 58135,
  "name": "STARLINK-30772",
  "history": [
    {
      "epoch": "2026-03-28T05:32:16.714464Z",
      "apogee_km": 483.9848020066165,
      "perigee_km": 482.10483818791,
      "latitude_deg": -1.8143270857513327e-05,
      "longitude_deg": 118.97346478636241,
      "height_km": 482.68759473597964,
      "semi_major_axis_km": 6861.181820097263,
      "eccentricity": 0.000137,
      "inclination_deg": 43.0045,
      "raan_deg": 27.6973,
      "arg_perigee_deg": 278.2212,
      "mean_anomaly_deg": 81.8484,
      "mean_motion_rev_day": 15.27581428
    },
    {
      "epoch": "2026-03-29T05:04:37.291872Z",
      "apogee_km": 484.064861324312,
      "perigee_km": 482.06825108945577,
      "latitude_deg": 2.2850241865945515e-05,
      "longitude_deg": 119.3825547015799,
      "height_km": 483.0228275027574,
      "semi_major_axis_km": 6861.203556206884,
      "eccentricity": 0.0001455,
      "inclination_deg": 43.004,
      "raan_deg": 22.1588,
      "arg_perigee_deg": 259.6635,
      "mean_anomaly_deg": 100.4053,
      "mean_motion_rev_day": 15.27574169
    },
    {
      "epoch": "2026-03-30T04:36:58.488768Z",
      "apogee_km": 484.15052635544,
      "perigee_km": 482.0153147161682,
      "latitude_deg": -2.9908850677320404e-05,
      "longitude_deg": 119.78815719737968,
      "height_km": 482.97665286186276,
      "semi_major_axis_km": 6861.219920535804,
      "eccentricity": 0.0001556,
      "inclination_deg": 43.0039,
      "raan_deg": 16.6195,
      "arg_perigee_deg": 263.7359,
      "mean_anomaly_deg": 96.3315,
      "mean_motion_rev_day": 15.27568704
    },
    {
      "epoch": "2026-03-30T04:36:58.489632Z",
      "apogee_km": 484.15038913104036,
      "perigee_km": 482.0154519405669,
      "latitude_deg": -3.14717390015525e-05,
      "longitude_deg": 119.78815192102093,
      "height_km": 482.97663789120486,
      "semi_major_axis_km": 6861.219920535804,
      "eccentricity": 0.00015558,
      "inclination_deg": 43.0039,
      "raan_deg": 16.6195,
      "arg_perigee_deg": 263.7359,
      "mean_anomaly_deg": 96.3315,
      "mean_motion_rev_day": 15.27568704
    },
    {
      "epoch": "2026-03-30T12:27:45.205344Z",
      "apogee_km": 484.0114232679234,
      "perigee_km": 482.0382903411428,
      "latitude_deg": 6.2691483311737645e-06,
      "longitude_deg": -0.07299275650151546,
      "height_km": 482.8106868123422,
      "semi_major_axis_km": 6861.161856804532,
      "eccentricity": 0.00014379,
      "inclination_deg": 43.0046,
      "raan_deg": 14.7752,
      "arg_perigee_deg": 269.5013,
      "mean_anomaly_deg": 90.5674,
      "mean_motion_rev_day": 15.27588095
    },
    {
      "epoch": "2026-03-31T12:00:05.805216Z",
      "apogee_km": 484.28762383201047,
      "perigee_km": 481.77424079504544,
      "latitude_deg": 4.7085882969812094e-05,
      "longitude_deg": 0.33330456351542775,
      "height_km": 483.1813758097368,
      "semi_major_axis_km": 6861.167932313528,
      "eccentricity": 0.00018316,
      "inclination_deg": 43.0045,
      "raan_deg": 9.234,
      "arg_perigee_deg": 252.733,
      "mean_anomaly_deg": 107.3322,
      "mean_motion_rev_day": 15.27586066
    },
    {
      "epoch": "2026-04-01T11:32:27.135168Z",
      "apogee_km": 484.14358158529194,
      "perigee_km": 481.9795595561336,
      "latitude_deg": 1.4438330962737032e-05,
      "longitude_deg": 0.7389732578324947,
      "height_km": 483.1714682259476,
      "semi_major_axis_km": 6861.198570570713,
      "eccentricity": 0.0001577,
      "inclination_deg": 43.0063,
      "raan_deg": 3.6953,
      "arg_perigee_deg": 252.1058,
      "mean_anomaly_deg": 107.9622,
      "mean_motion_rev_day": 15.27575834
    }
  ]
}